KUIPER-00037            
1 63749U 25088AB  25128.16667824  .00037186  00000+0  10421-2 0  9994
2 63749  51.8730  53.4206 0003059 112.1900  96.1026 15.36244607  2662
KUIPER-00038            
1 63750U 25088AC  25127.91668981 -.00015382  00000+0 -42373-3 0  9991
2 63750  51.8724  54.6530 0004680 131.9859 120.2593 15.35872814  1307
STARLINK-11677 [DTC]    
1 63751U 25089A   25127.91668981 -.01009829  00000+0 -47473-2 0  9998
2 63751  43.0052 338.4549 0001485 262.6517 355.9135 15.84647014  2026
STARLINK-11702 [DTC]    
1 63752U 25089B   25127.91668981  .00004103  00000+0  19435-4 0  9995
2 63752  43.0052 338.4511 0002318 258.0844   1.9220 15.84750398  2027
STARLINK-11706 [DTC]    
1 63753U 25089C   25128.25002315 -.00072422  00000+0 -30158-3 0  9992
2 63753  43.0057 336.3909 0002408 243.9510 122.7324 15.84791976  2062
STARLINK-11662 [DTC]    
1 63754U 25089D   25127.91668981  .00004922  00000+0  22848-4 0  9998
2 63754  43.0053 338.4403 0002395 269.7536 354.5757 15.84750195  2074
STARLINK-11681 [DTC]    
1 63755U 25089E   25128.25002315 -.00090770  00000+0 -37911-3 0  9994
2 63755  43.0056 336.3785 0002529 258.0007 113.5138 15.84805485  2069
STARLINK-11688 [DTC]    
1 63756U 25089F   25128.25002315 -.00086329  00000+0 -36035-3 0  9996
2 63756  43.0050 336.3715 0002094 272.7143 101.1690 15.84802949  1953
STARLINK-11676 [DTC]    
1 63757U 25089G   25127.91668981  .00031383  00000+0  13288-3 0  9999
2 63757  43.0053 338.4181 0001685 252.1866  20.9454 15.84730827  1913
STARLINK-11705 [DTC]    
1 63758U 25089H   25127.91668981  .00036563  00000+0  15436-3 0  9992
2 63758  43.0053 338.4127 0001636 255.9807  19.3248 15.84727896  1977
STARLINK-11703 [DTC]    
1 63759U 25089J   25127.91668981  .00019039  00000+0  81579-4 0  9994
2 63759  43.0054 338.4046 0001906 255.8858  22.6001 15.84746514  2023
STARLINK-11701 [DTC]    
1 63760U 25089K   25128.25002315 -.00091016  00000+0 -38019-3 0  9994
2 63760  43.0049 336.3434 0001763 259.6065 125.4369 15.84807180  2060
STARLINK-11660 [DTC]    
1 63761U 25089L   25128.25002315 -.00084559  00000+0 -35285-3 0  9991
2 63761  43.0050 336.3365 0002204 268.7043 119.0812 15.84801840  2018
STARLINK-11699 [DTC]    
1 63762U 25089M   25128.25002315 -.00110358  00000+0 -46230-3 0  9991
2 63762  43.0050 336.3305 0001908 263.4353 126.7269 15.84815551  2069
STARLINK-11693 [DTC]    
1 63763U 25089N   25128.25002315 -.00057687  00000+0 -23925-3 0  9993
2 63763  43.0051 336.3221 0001851 261.3224 132.2320 15.84802816  1956
STARLINK-33760          
1 63764U 25089P   25128.25002315 -.01124744  00000+0 -53938-2 0  9990
2 63764  43.0056 336.3178 0001808 263.9591 131.2898 15.84100019  2170
