[{"OBJECT_NAME":"KUIPER-00037","OBJECT_ID":"2025-088AB","EPOCH":"2025-05-08T04:00:00.999936","MEAN_MOTION":15.36244607,"ECCENTRICITY":0.0003059,"INCLINATION":51.873,"RA_OF_ASC_NODE":53.4206,"ARG_OF_PERICENTER":112.19,"MEAN_ANOMALY":96.1026,"EPHEMERIS_TYPE":0,"CLASSIFICATION_TYPE":"U","NORAD_CAT_ID":63749,"ELEMENT_SET_NO":999,"REV_AT_EPOCH":266,"BSTAR":0.0010421,"MEAN_MOTION_DOT":0.00037186,"MEAN_MOTION_DDOT":0},{"OBJECT_NAME":"KUIPER-00038","OBJECT_ID":"2025-088AC","EPOCH":"2025-05-07T22:00:01.999584","MEAN_MOTION":15.35872814,"ECCENTRICITY":0.000468,"INCLINATION":51.8724,"RA_OF_ASC_NODE":54.653,"ARG_OF_PERICENTER":131.9859,"MEAN_ANOMALY":120.2593,"EPHEMERIS_TYPE":0,"CLASSIFICATION_TYPE":"U","NORAD_CAT_ID":63750,"ELEMENT_SET_NO":999,"REV_AT_EPOCH":130,"BSTAR":-0.00042373,"MEAN_MOTION_DOT":-0.00015382,"MEAN_MOTION_DDOT":0},{"OBJECT_NAME":"STARLINK-11677 [DTC]","OBJECT_ID":"2025-089A","EPOCH":"2025-05-07T22:00:01.999584","MEAN_MOTION":15.84647014,"ECCENTRICITY":0.0001485,"INCLINATION":43.0052,"RA_OF_ASC_NODE":338.4549,"ARG_OF_PERICENTER":262.6517,"MEAN_ANOMALY":355.9135,"EPHEMERIS_TYPE":0,"CLASSIFICATION_TYPE":"U","NORAD_CAT_ID":63751,"ELEMENT_SET_NO":999,"REV_AT_EPOCH":202,"BSTAR":-0.0047473,"MEAN_MOTION_DOT":-0.01009829,"MEAN_MOTION_DDOT":0},{"OBJECT_NAME":"STARLINK-11702 [DTC]","OBJECT_ID":"2025-089B","EPOCH":"2025-05-07T22:00:01.999584","MEAN_MOTION":15.84750398,"ECCENTRICITY":0.0002318,"INCLINATION":43.0052,"RA_OF_ASC_NODE":338.4511,"ARG_OF_PERICENTER":258.0844,"MEAN_ANOMALY":1.922,"EPHEMERIS_TYPE":0,"CLASSIFICATION_TYPE":"U","NORAD_CAT_ID":63752,"ELEMENT_SET_NO":999,"REV_AT_EPOCH":202,"BSTAR":1.9435e-5,"MEAN_MOTION_DOT":4.103e-5,"MEAN_MOTION_DDOT":0},{"OBJECT_NAME":"STARLINK-11706 [DTC]","OBJECT_ID":"2025-089C","EPOCH":"2025-05-08T06:00:02.000160","MEAN_MOTION":15.84791976,"ECCENTRICITY":0.0002408,"INCLINATION":43.0057,"RA_OF_ASC_NODE":336.3909,"ARG_OF_PERICENTER":243.951,"MEAN_ANOMALY":122.7324,"EPHEMERIS_TYPE":0,"CLASSIFICATION_TYPE":"U","NORAD_CAT_ID":63753,"ELEMENT_SET_NO":999,"REV_AT_EPOCH":206,"BSTAR":-0.00030158,"MEAN_MOTION_DOT":-0.00072422,"MEAN_MOTION_DDOT":0},{"OBJECT_NAME":"STARLINK-11662 [DTC]","OBJECT_ID":"2025-089D","EPOCH":"2025-05-07T22:00:01.999584","MEAN_MOTION":15.84750195,"ECCENTRICITY":0.0002395,"INCLINATION":43.0053,"RA_OF_ASC_NODE":338.4403,"ARG_OF_PERICENTER":269.7536,"MEAN_ANOMALY":354.5757,"EPHEMERIS_TYPE":0,"CLASSIFICATION_TYPE":"U","NORAD_CAT_ID":63754,"ELEMENT_SET_NO":999,"REV_AT_EPOCH":207,"BSTAR":2.2848e-5,"MEAN_MOTION_DOT":4.922e-5,"MEAN_MOTION_DDOT":0},{"OBJECT_NAME":"STARLINK-11681 [DTC]","OBJECT_ID":"2025-089E","EPOCH":"2025-05-08T06:00:02.000160","MEAN_MOTION":15.84805485,"ECCENTRICITY":0.0002529,"INCLINATION":43.0056,"RA_OF_ASC_NODE":336.3785,"ARG_OF_PERICENTER":258.0007,"MEAN_ANOMALY":113.5138,"EPHEMERIS_TYPE":0,"CLASSIFICATION_TYPE":"U","NORAD_CAT_ID":63755,"ELEMENT_SET_NO":999,"REV_AT_EPOCH":206,"BSTAR":-0.00037911,"MEAN_MOTION_DOT":-0.0009077,"MEAN_MOTION_DDOT":0},{"OBJECT_NAME":"STARLINK-11688 [DTC]","OBJECT_ID":"2025-089F","EPOCH":"2025-05-08T06:00:02.000160","MEAN_MOTION":15.84802949,"ECCENTRICITY":0.0002094,"INCLINATION":43.005,"RA_OF_ASC_NODE":336.3715,"ARG_OF_PERICENTER":272.7143,"MEAN_ANOMALY":101.169,"EPHEMERIS_TYPE":0,"CLASSIFICATION_TYPE":"U","NORAD_CAT_ID":63756,"ELEMENT_SET_NO":999,"REV_AT_EPOCH":195,"BSTAR":-0.00036035,"MEAN_MOTION_DOT":-0.00086329,"MEAN_MOTION_DDOT":0},{"OBJECT_NAME":"STARLINK-11676 [DTC]","OBJECT_ID":"2025-089G","EPOCH":"2025-05-07T22:00:01.999584","MEAN_MOTION":15.84730827,"ECCENTRICITY":0.0001685,"INCLINATION":43.0053,"RA_OF_ASC_NODE":338.4181,"ARG_OF_PERICENTER":252.1866,"MEAN_ANOMALY":20.9454,"EPHEMERIS_TYPE":0,"CLASSIFICATION_TYPE":"U","NORAD_CAT_ID":63757,"ELEMENT_SET_NO":999,"REV_AT_EPOCH":191,"BSTAR":0.00013288,"MEAN_MOTION_DOT":0.00031383,"MEAN_MOTION_DDOT":0},{"OBJECT_NAME":"STARLINK-11705 [DTC]","OBJECT_ID":"2025-089H","EPOCH":"2025-05-07T22:00:01.999584","MEAN_MOTION":15.84727896,"ECCENTRICITY":0.0001636,"INCLINATION":43.0053,"RA_OF_ASC_NODE":338.4127,"ARG_OF_PERICENTER":255.9807,"MEAN_ANOMALY":19.3248,"EPHEMERIS_TYPE":0,"CLASSIFICATION_TYPE":"U","NORAD_CAT_ID":63758,"ELEMENT_SET_NO":999,"REV_AT_EPOCH":197,"BSTAR":0.00015436,"MEAN_MOTION_DOT":0.00036563,"MEAN_MOTION_DDOT":0},{"OBJECT_NAME":"STARLINK-11703 [DTC]","OBJECT_ID":"2025-089J","EPOCH":"2025-05-07T22:00:01.999584","MEAN_MOTION":15.84746514,"ECCENTRICITY":0.0001906,"INCLINATION":43.0054,"RA_OF_ASC_NODE":338.4046,"ARG_OF_PERICENTER":255.8858,"MEAN_ANOMALY":22.6001,"EPHEMERIS_TYPE":0,"CLASSIFICATION_TYPE":"U","NORAD_CAT_ID":63759,"ELEMENT_SET_NO":999,"REV_AT_EPOCH":202,"BSTAR":8.1579e-5,"MEAN_MOTION_DOT":0.00019039,"MEAN_MOTION_DDOT":0},{"OBJECT_NAME":"STARLINK-11701 [DTC]","OBJECT_ID":"2025-089K","EPOCH":"2025-05-08T06:00:02.000160","MEAN_MOTION":15.8480718,"ECCENTRICITY":0.0001763,"INCLINATION":43.0049,"RA_OF_ASC_NODE":336.3434,"ARG_OF_PERICENTER":259.6065,"MEAN_ANOMALY":125.4369,"EPHEMERIS_TYPE":0,"CLASSIFICATION_TYPE":"U","NORAD_CAT_ID":63760,"ELEMENT_SET_NO":999,"REV_AT_EPOCH":206,"BSTAR":-0.00038019,"MEAN_MOTION_DOT":-0.00091016,"MEAN_MOTION_DDOT":0},{"OBJECT_NAME":"STARLINK-11660 [DTC]","OBJECT_ID":"2025-089L","EPOCH":"2025-05-08T06:00:02.000160","MEAN_MOTION":15.8480184,"ECCENTRICITY":0.0002204,"INCLINATION":43.005,"RA_OF_ASC_NODE":336.3365,"ARG_OF_PERICENTER":268.7043,"MEAN_ANOMALY":119.0812,"EPHEMERIS_TYPE":0,"CLASSIFICATION_TYPE":"U","NORAD_CAT_ID":63761,"ELEMENT_SET_NO":999,"REV_AT_EPOCH":201,"BSTAR":-0.00035285,"MEAN_MOTION_DOT":-0.00084559,"MEAN_MOTION_DDOT":0},{"OBJECT_NAME":"STARLINK-11699 [DTC]","OBJECT_ID":"2025-089M","EPOCH":"2025-05-08T06:00:02.000160","MEAN_MOTION":15.84815551,"ECCENTRICITY":0.0001908,"INCLINATION":43.005,"RA_OF_ASC_NODE":336.3305,"ARG_OF_PERICENTER":263.4353,"MEAN_ANOMALY":126.7269,"EPHEMERIS_TYPE":0,"CLASSIFICATION_TYPE":"U","NORAD_CAT_ID":63762,"ELEMENT_SET_NO":999,"REV_AT_EPOCH":206,"BSTAR":-0.0004623,"MEAN_MOTION_DOT":-0.00110358,"MEAN_MOTION_DDOT":0},{"OBJECT_NAME":"STARLINK-11693 [DTC]","OBJECT_ID":"2025-089N","EPOCH":"2025-05-08T06:00:02.000160","MEAN_MOTION":15.84802816,"ECCENTRICITY":0.0001851,"INCLINATION":43.0051,"RA_OF_ASC_NODE":336.3221,"ARG_OF_PERICENTER":261.3224,"MEAN_ANOMALY":132.232,"EPHEMERIS_TYPE":0,"CLASSIFICATION_TYPE":"U","NORAD_CAT_ID":63763,"ELEMENT_SET_NO":999,"REV_AT_EPOCH":195,"BSTAR":-0.00023925,"MEAN_MOTION_DOT":-0.00057687,"MEAN_MOTION_DDOT":0},{"OBJECT_NAME":"STARLINK-33760","OBJECT_ID":"2025-089P","EPOCH":"2025-05-08T06:00:02.000160","MEAN_MOTION":15.84100019,"ECCENTRICITY":0.0001808,"INCLINATION":43.0056,"RA_OF_ASC_NODE":336.3178,"ARG_OF_PERICENTER":263.9591,"MEAN_ANOMALY":131.2898,"EPHEMERIS_TYPE":0,"CLASSIFICATION_TYPE":"U","NORAD_CAT_ID":63764,"ELEMENT_SET_NO":999,"REV_AT_EPOCH":217,"BSTAR":-0.0053938,"MEAN_MOTION_DOT":-0.01124744,"MEAN_MOTION_DDOT":0}]
